{
  "norad_id": 60052,
  "name": "STARLINK-31775",
  "history": [
    {
      "epoch": "2026-03-28T10:30:18.612288Z",
      "apogee_km": 476.45639127628147,
      "perigee_km": 474.0041194049745,
      "latitude_deg": 7.081333831524889e-05,
      "longitude_deg": 7.716233801013632,
      "height_km": 475.59358060343095,
      "semi_major_axis_km": 6853.367255340628,
      "eccentricity": 0.00017891,
      "inclination_deg": 53.1636,
      "raan_deg": 351.1519,
      "arg_perigee_deg": 64.1477,
      "mean_anomaly_deg": 295.9709,
      "mean_motion_rev_day": 15.30194914
    },
    {
      "epoch": "2026-03-28T21:28:40.722528Z",
      "apogee_km": 476.1557270768135,
      "perigee_km": 474.2737966830009,
      "latitude_deg": 1.5438223372817554e-05,
      "longitude_deg": -159.45017085657264,
      "height_km": 476.0578077046439,
      "semi_major_axis_km": 6853.351761879907,
      "eccentricity": 0.0001373,
      "inclination_deg": 53.163,
      "raan_deg": 349.0283,
      "arg_perigee_deg": 86.6362,
      "mean_anomaly_deg": 273.4796,
      "mean_motion_rev_day": 15.30200103
    },
    {
      "epoch": "2026-03-30T00:07:36.018336Z",
      "apogee_km": 475.85755631998745,
      "perigee_km": 474.67013608937395,
      "latitude_deg": -2.2380513422697443e-05,
      "longitude_deg": 154.5658792979062,
      "height_km": 476.091887884605,
      "semi_major_axis_km": 6853.40084620468,
      "eccentricity": 8.663e-05,
      "inclination_deg": 53.1615,
      "raan_deg": 343.8692,
      "arg_perigee_deg": 83.1567,
      "mean_anomaly_deg": 276.9532,
      "mean_motion_rev_day": 15.30183664
    },
    {
      "epoch": "2026-03-30T09:31:54.726816Z",
      "apogee_km": 475.92780445411427,
      "perigee_km": 474.5479459567414,
      "latitude_deg": -5.783964369434053e-05,
      "longitude_deg": 11.282843627795826,
      "height_km": 476.1944035624444,
      "semi_major_axis_km": 6853.374875205428,
      "eccentricity": 0.00010067,
      "inclination_deg": 53.1625,
      "raan_deg": 342.0504,
      "arg_perigee_deg": 94.8073,
      "mean_anomaly_deg": 265.3042,
      "mean_motion_rev_day": 15.30192362
    },
    {
      "epoch": "2026-03-30T20:30:16.872480Z",
      "apogee_km": 475.7413207704103,
      "perigee_km": 474.7256512643835,
      "latitude_deg": 6.366638971888076e-06,
      "longitude_deg": -155.88601924372804,
      "height_km": 475.96630566031024,
      "semi_major_axis_km": 6853.370486017397,
      "eccentricity": 7.41e-05,
      "inclination_deg": 53.1598,
      "raan_deg": 339.9244,
      "arg_perigee_deg": 70.9215,
      "mean_anomaly_deg": 289.1866,
      "mean_motion_rev_day": 15.30193832
    },
    {
      "epoch": "2026-03-30T23:38:23.015040Z",
      "apogee_km": 475.74254272054804,
      "perigee_km": 474.7022027677667,
      "latitude_deg": 1.8661327745525526e-05,
      "longitude_deg": 156.35394456606303,
      "height_km": 475.94940894052013,
      "semi_major_axis_km": 6853.359372744158,
      "eccentricity": 7.59e-05,
      "inclination_deg": 53.1596,
      "raan_deg": 339.3187,
      "arg_perigee_deg": 70.7222,
      "mean_anomaly_deg": 289.3861,
      "mean_motion_rev_day": 15.30197554
    },
    {
      "epoch": "2026-04-01T21:05:55.529088Z",
      "apogee_km": 475.81897141335867,
      "perigee_km": 474.577147100621,
      "latitude_deg": -1.822207636209193e-05,
      "longitude_deg": -176.1933917006722,
      "height_km": 476.0485112155972,
      "semi_major_axis_km": 6853.33505925699,
      "eccentricity": 9.06e-05,
      "inclination_deg": 53.1607,
      "raan_deg": 330.5238,
      "arg_perigee_deg": 85.548,
      "mean_anomaly_deg": 274.5624,
      "mean_motion_rev_day": 15.30205697
    },
    {
      "epoch": "2026-04-02T15:54:33.563808Z",
      "apogee_km": 475.9958455027963,
      "perigee_km": 474.4043635603821,
      "latitude_deg": 3.655931264001063e-05,
      "longitude_deg": -102.76425073876008,
      "height_km": 476.05087354834143,
      "semi_major_axis_km": 6853.337104531589,
      "eccentricity": 0.00011611,
      "inclination_deg": 53.1617,
      "raan_deg": 326.8839,
      "arg_perigee_deg": 86.5679,
      "mean_anomaly_deg": 273.5455,
      "mean_motion_rev_day": 15.30205012
    },
    {
      "epoch": "2026-04-02T22:10:46.570368Z",
      "apogee_km": 475.996354782279,
      "perigee_km": 474.422963456278,
      "latitude_deg": 2.0458882187490095e-05,
      "longitude_deg": 161.708632216105,
      "height_km": 475.9556023302099,
      "semi_major_axis_km": 6853.346659119278,
      "eccentricity": 0.00011479,
      "inclination_deg": 53.1615,
      "raan_deg": 325.6685,
      "arg_perigee_deg": 78.8233,
      "mean_anomaly_deg": 281.2897,
      "mean_motion_rev_day": 15.30201812
    },
    {
      "epoch": "2026-04-03T18:33:28.893312Z",
      "apogee_km": 476.1439930127617,
      "perigee_km": 474.36485259940036,
      "latitude_deg": -3.497419992499233e-05,
      "longitude_deg": -148.75046678338663,
      "height_km": 476.13622468654074,
      "semi_major_axis_km": 6853.39142280608,
      "eccentricity": 0.0001298,
      "inclination_deg": 53.1607,
      "raan_deg": 321.7227,
      "arg_perigee_deg": 88.9494,
      "mean_anomaly_deg": 271.1655,
      "mean_motion_rev_day": 15.3018682
    },
    {
      "epoch": "2026-04-04T21:12:22.900896Z",
      "apogee_km": 476.2660752835145,
      "perigee_km": 474.1881352867922,
      "latitude_deg": 4.568405801068908e-06,
      "longitude_deg": 165.27682197136895,
      "height_km": 475.9895909194611,
      "semi_major_axis_km": 6853.3641052851535,
      "eccentricity": 0.0001516,
      "inclination_deg": 53.1617,
      "raan_deg": 316.5694,
      "arg_perigee_deg": 82.5091,
      "mean_anomaly_deg": 277.6082,
      "mean_motion_rev_day": 15.30195969
    },
    {
      "epoch": "2026-04-05T14:26:58.786656Z",
      "apogee_km": 476.0789731233517,
      "perigee_km": 474.4581427089033,
      "latitude_deg": -1.1296811940751229e-05,
      "longitude_deg": -97.41887227037674,
      "height_km": 475.8921596922153,
      "semi_major_axis_km": 6853.405557916127,
      "eccentricity": 0.00011825,
      "inclination_deg": 53.1624,
      "raan_deg": 313.2314,
      "arg_perigee_deg": 70.1679,
      "mean_anomaly_deg": 289.9449,
      "mean_motion_rev_day": 15.30182086
    },
    {
      "epoch": "2026-04-05T20:43:11.204832Z",
      "apogee_km": 476.04009026349286,
      "perigee_km": 474.4583287263413,
      "latitude_deg": -4.718226176614192e-06,
      "longitude_deg": 167.05748524190648,
      "height_km": 475.95765527433383,
      "semi_major_axis_km": 6853.386209494916,
      "eccentricity": 0.0001154,
      "inclination_deg": 53.1623,
      "raan_deg": 312.017,
      "arg_perigee_deg": 76.0934,
      "mean_anomaly_deg": 284.0195,
      "mean_motion_rev_day": 15.30188566
    },
    {
      "epoch": "2026-04-05T23:51:16.976736Z",
      "apogee_km": 476.06413458636234,
      "perigee_km": 474.3828681881614,
      "latitude_deg": -2.4886755823393834e-05,
      "longitude_deg": 119.2970731089677,
      "height_km": 475.88045973208955,
      "semi_major_axis_km": 6853.360501387262,
      "eccentricity": 0.00012266,
      "inclination_deg": 53.161,
      "raan_deg": 311.4094,
      "arg_perigee_deg": 73.3145,
      "mean_anomaly_deg": 286.799,
      "mean_motion_rev_day": 15.30197176
    },
    {
      "epoch": "2026-04-07T13:28:33.925728Z",
      "apogee_km": 476.06661541181256,
      "perigee_km": 474.3709581230514,
      "latitude_deg": -2.3279106148206177e-05,
      "longitude_deg": -93.84970559110639,
      "height_km": 475.9135966763005,
      "semi_major_axis_km": 6853.355786767432,
      "eccentricity": 0.00012371,
      "inclination_deg": 53.16,
      "raan_deg": 304.1283,
      "arg_perigee_deg": 76.1213,
      "mean_anomaly_deg": 283.9925,
      "mean_motion_rev_day": 15.30198755
    },
    {
      "epoch": "2026-04-07T18:10:43.794048Z",
      "apogee_km": 475.8868824904657,
      "perigee_km": 474.5792594809227,
      "latitude_deg": 3.78082970728531e-05,
      "longitude_deg": -165.49461337213228,
      "height_km": 476.0690788676286,
      "semi_major_axis_km": 6853.370070985694,
      "eccentricity": 9.54e-05,
      "inclination_deg": 53.1608,
      "raan_deg": 303.2176,
      "arg_perigee_deg": 84.5076,
      "mean_anomaly_deg": 275.6034,
      "mean_motion_rev_day": 15.30193971
    },
    {
      "epoch": "2026-04-08T12:59:19.575456Z",
      "apogee_km": 475.7152289529813,
      "perigee_km": 474.5870406602289,
      "latitude_deg": 1.2519988143488793e-05,
      "longitude_deg": -92.05692055149795,
      "height_km": 475.88404068766033,
      "semi_major_axis_km": 6853.288134806605,
      "eccentricity": 8.231e-05,
      "inclination_deg": 53.1606,
      "raan_deg": 299.5769,
      "arg_perigee_deg": 72.8975,
      "mean_anomaly_deg": 287.2116,
      "mean_motion_rev_day": 15.30221413
    },
    {
      "epoch": "2026-04-09T18:46:23.079648Z",
      "apogee_km": 476.2207692904549,
      "perigee_km": 474.32648659289134,
      "latitude_deg": -2.874500349246808e-05,
      "longitude_deg": 174.19274620135653,
      "height_km": 475.94317432014714,
      "semi_major_axis_km": 6853.410627941673,
      "eccentricity": 0.0001382,
      "inclination_deg": 53.1617,
      "raan_deg": 293.8144,
      "arg_perigee_deg": 76.0324,
      "mean_anomaly_deg": 284.083,
      "mean_motion_rev_day": 15.30180388
    },
    {
      "epoch": "2026-04-10T05:44:45.177792Z",
      "apogee_km": 475.95902596812357,
      "perigee_km": 474.56367406406025,
      "latitude_deg": -3.0553614615058314e-05,
      "longitude_deg": 7.025130958347282,
      "height_km": 476.1593413514809,
      "semi_major_axis_km": 6853.398350016092,
      "eccentricity": 0.0001018,
      "inclination_deg": 53.1609,
      "raan_deg": 291.6895,
      "arg_perigee_deg": 89.9573,
      "mean_anomaly_deg": 270.1544,
      "mean_motion_rev_day": 15.301845
    }
  ]
}